[{"OBJECT_NAME":"SL-14 R/B","OBJECT_ID":"1986-006B","EPOCH":"2026-03-19T22:50:35.088864","MEAN_MOTION":14.8682968,"ECCENTRICITY":0.0075271,"INCLINATION":82.5239,"RA_OF_ASC_NODE":250.0759,"ARG_OF_PERICENTER":238.134,"MEAN_ANOMALY":121.2537,"EPHEMERIS_TYPE":0,"CLASSIFICATION_TYPE":"U","NORAD_CAT_ID":16496,"ELEMENT_SET_NO":999,"REV_AT_EPOCH":15073,"BSTAR":7.267e-5,"MEAN_MOTION_DOT":7.08e-6,"MEAN_MOTION_DDOT":0},{"OBJECT_NAME":"COSMOS 1743","OBJECT_ID":"1986-034A","EPOCH":"2026-03-20T05:35:37.230720","MEAN_MOTION":15.59318311,"ECCENTRICITY":0.00025381,"INCLINATION":82.5292,"RA_OF_ASC_NODE":62.7562,"ARG_OF_PERICENTER":204.2878,"MEAN_ANOMALY":155.8259,"EPHEMERIS_TYPE":0,"CLASSIFICATION_TYPE":"U","NORAD_CAT_ID":16719,"ELEMENT_SET_NO":999,"REV_AT_EPOCH":18189,"BSTAR":0.00037515928,"MEAN_MOTION_DOT":0.00029618,"MEAN_MOTION_DDOT":0},{"OBJECT_NAME":"SL-14 R/B","OBJECT_ID":"1986-046B","EPOCH":"2026-03-20T05:56:09.212640","MEAN_MOTION":14.85600014,"ECCENTRICITY":0.00227853,"INCLINATION":82.479,"RA_OF_ASC_NODE":70.2028,"ARG_OF_PERICENTER":189.3162,"MEAN_ANOMALY":170.7635,"EPHEMERIS_TYPE":0,"CLASSIFICATION_TYPE":"U","NORAD_CAT_ID":16792,"ELEMENT_SET_NO":999,"REV_AT_EPOCH":12797,"BSTAR":4.4056397e-5,"MEAN_MOTION_DOT":4.07e-6,"MEAN_MOTION_DDOT":0},{"OBJECT_NAME":"SL-14 R/B","OBJECT_ID":"1986-055B","EPOCH":"2026-03-20T04:14:30.629760","MEAN_MOTION":14.85651414,"ECCENTRICITY":0.00175016,"INCLINATION":82.5181,"RA_OF_ASC_NODE":116.8156,"ARG_OF_PERICENTER":299.8809,"MEAN_ANOMALY":129.8741,"EPHEMERIS_TYPE":0,"CLASSIFICATION_TYPE":"U","NORAD_CAT_ID":16882,"ELEMENT_SET_NO":999,"REV_AT_EPOCH":12092,"BSTAR":4.0009622e-5,"MEAN_MOTION_DOT":3.71e-6,"MEAN_MOTION_DDOT":0},{"OBJECT_NAME":"AJISAI (EGS)","OBJECT_ID":"1986-061A","EPOCH":"2026-03-20T06:20:37.999680","MEAN_MOTION":12.44515657,"ECCENTRICITY":0.00113085,"INCLINATION":50.0099,"RA_OF_ASC_NODE":60.8294,"ARG_OF_PERICENTER":314.2501,"MEAN_ANOMALY":243.4157,"EPHEMERIS_TYPE":0,"CLASSIFICATION_TYPE":"U","NORAD_CAT_ID":16908,"ELEMENT_SET_NO":999,"REV_AT_EPOCH":46931,"BSTAR":-9.8433711e-5,"MEAN_MOTION_DOT":-1.11e-6,"MEAN_MOTION_DDOT":0},{"OBJECT_NAME":"SL-14 R/B","OBJECT_ID":"1987-024B","EPOCH":"2026-03-20T06:38:42.244512","MEAN_MOTION":14.86141575,"ECCENTRICITY":0.00171226,"INCLINATION":82.5245,"RA_OF_ASC_NODE":82.8096,"ARG_OF_PERICENTER":222.0659,"MEAN_ANOMALY":137.9244,"EPHEMERIS_TYPE":0,"CLASSIFICATION_TYPE":"U","NORAD_CAT_ID":17567,"ELEMENT_SET_NO":999,"REV_AT_EPOCH":8970,"BSTAR":4.3575073e-5,"MEAN_MOTION_DOT":4.07e-6,"MEAN_MOTION_DDOT":0},{"OBJECT_NAME":"COSMOS 1833","OBJECT_ID":"1987-027A","EPOCH":"2026-03-20T01:17:45.272544","MEAN_MOTION":14.13051451,"ECCENTRICITY":0.00237311,"INCLINATION":70.9196,"RA_OF_ASC_NODE":304.2359,"ARG_OF_PERICENTER":199.6118,"MEAN_ANOMALY":160.4093,"EPHEMERIS_TYPE":0,"CLASSIFICATION_TYPE":"U","NORAD_CAT_ID":17589,"ELEMENT_SET_NO":999,"REV_AT_EPOCH":1178,"BSTAR":-0.00010094475,"MEAN_MOTION_DOT":-2.37e-6,"MEAN_MOTION_DDOT":0},{"OBJECT_NAME":"SL-16 R/B","OBJECT_ID":"1987-027B","EPOCH":"2026-03-19T22:14:55.283136","MEAN_MOTION":14.17166688,"ECCENTRICITY":0.0003047,"INCLINATION":70.9993,"RA_OF_ASC_NODE":254.9201,"ARG_OF_PERICENTER":118.9735,"MEAN_ANOMALY":241.1694,"EPHEMERIS_TYPE":0,"CLASSIFICATION_TYPE":"U","NORAD_CAT_ID":17590,"ELEMENT_SET_NO":999,"REV_AT_EPOCH":1679,"BSTAR":-2.9695e-5,"MEAN_MOTION_DOT":-1.08e-6,"MEAN_MOTION_DDOT":0},{"OBJECT_NAME":"SL-14 R/B","OBJECT_ID":"1987-038B","EPOCH":"2026-03-20T01:48:17.254944","MEAN_MOTION":14.853781,"ECCENTRICITY":0.0020439,"INCLINATION":82.4985,"RA_OF_ASC_NODE":287.0222,"ARG_OF_PERICENTER":127.6163,"MEAN_ANOMALY":232.6913,"EPHEMERIS_TYPE":0,"CLASSIFICATION_TYPE":"U","NORAD_CAT_ID":17912,"ELEMENT_SET_NO":999,"REV_AT_EPOCH":8077,"BSTAR":4.2001509e-5,"MEAN_MOTION_DOT":3.87e-6,"MEAN_MOTION_DDOT":0},{"OBJECT_NAME":"COSMOS 1844","OBJECT_ID":"1987-041A","EPOCH":"2026-03-20T05:16:12.556128","MEAN_MOTION":14.14551454,"ECCENTRICITY":0.0030555,"INCLINATION":70.9009,"RA_OF_ASC_NODE":11.9656,"ARG_OF_PERICENTER":2.5053,"MEAN_ANOMALY":357.6215,"EPHEMERIS_TYPE":0,"CLASSIFICATION_TYPE":"U","NORAD_CAT_ID":17973,"ELEMENT_SET_NO":999,"REV_AT_EPOCH":507,"BSTAR":6.6117095e-5,"MEAN_MOTION_DOT":7.9e-7,"MEAN_MOTION_DDOT":0},{"OBJECT_NAME":"SL-14 R/B","OBJECT_ID":"1987-055B","EPOCH":"2026-03-20T04:26:20.375520","MEAN_MOTION":14.85639964,"ECCENTRICITY":0.00201946,"INCLINATION":82.5024,"RA_OF_ASC_NODE":339.1423,"ARG_OF_PERICENTER":343.228,"MEAN_ANOMALY":16.8265,"EPHEMERIS_TYPE":0,"CLASSIFICATION_TYPE":"U","NORAD_CAT_ID":18153,"ELEMENT_SET_NO":999,"REV_AT_EPOCH":7149,"BSTAR":4.3497719e-5,"MEAN_MOTION_DOT":4.02e-6,"MEAN_MOTION_DDOT":0},{"OBJECT_NAME":"COSMOS 1867","OBJECT_ID":"1987-060A","EPOCH":"2026-03-19T23:46:07.042656","MEAN_MOTION":14.31504573,"ECCENTRICITY":0.00146494,"INCLINATION":65.0095,"RA_OF_ASC_NODE":277.8575,"ARG_OF_PERICENTER":279.2806,"MEAN_ANOMALY":80.6622,"EPHEMERIS_TYPE":0,"CLASSIFICATION_TYPE":"U","NORAD_CAT_ID":18187,"ELEMENT_SET_NO":999,"REV_AT_EPOCH":2141,"BSTAR":2.3678246e-5,"MEAN_MOTION_DOT":-3.7e-7,"MEAN_MOTION_DDOT":0},{"OBJECT_NAME":"SL-14 R/B","OBJECT_ID":"1988-001B","EPOCH":"2026-03-20T05:57:40.212576","MEAN_MOTION":14.85539411,"ECCENTRICITY":0.00175782,"INCLINATION":82.516,"RA_OF_ASC_NODE":185.4322,"ARG_OF_PERICENTER":198.959,"MEAN_ANOMALY":161.0974,"EPHEMERIS_TYPE":0,"CLASSIFICATION_TYPE":"U","NORAD_CAT_ID":18749,"ELEMENT_SET_NO":999,"REV_AT_EPOCH":4359,"BSTAR":5.0028873e-5,"MEAN_MOTION_DOT":4.57e-6,"MEAN_MOTION_DDOT":0},{"OBJECT_NAME":"COSMOS 1933","OBJECT_ID":"1988-020A","EPOCH":"2026-03-19T22:35:26.681856","MEAN_MOTION":15.18074846,"ECCENTRICITY":0.0004693,"INCLINATION":82.5105,"RA_OF_ASC_NODE":240.766,"ARG_OF_PERICENTER":148.8684,"MEAN_ANOMALY":211.2829,"EPHEMERIS_TYPE":0,"CLASSIFICATION_TYPE":"U","NORAD_CAT_ID":18958,"ELEMENT_SET_NO":999,"REV_AT_EPOCH":5178,"BSTAR":0.00019269,"MEAN_MOTION_DOT":3.956e-5,"MEAN_MOTION_DDOT":0},{"OBJECT_NAME":"SL-3 R/B","OBJECT_ID":"1988-032B","EPOCH":"2026-03-20T04:47:57.560928","MEAN_MOTION":15.20019463,"ECCENTRICITY":0.00253694,"INCLINATION":97.5206,"RA_OF_ASC_NODE":62.4151,"ARG_OF_PERICENTER":193.4038,"MEAN_ANOMALY":166.6526,"EPHEMERIS_TYPE":0,"CLASSIFICATION_TYPE":"U","NORAD_CAT_ID":19046,"ELEMENT_SET_NO":999,"REV_AT_EPOCH":5370,"BSTAR":0.00017564163,"MEAN_MOTION_DOT":3.745e-5,"MEAN_MOTION_DDOT":0},{"OBJECT_NAME":"SL-16 R/B","OBJECT_ID":"1988-039B","EPOCH":"2026-03-20T06:25:41.999808","MEAN_MOTION":14.19617812,"ECCENTRICITY":0.00232834,"INCLINATION":71.0151,"RA_OF_ASC_NODE":46.1782,"ARG_OF_PERICENTER":319.0519,"MEAN_ANOMALY":40.8857,"EPHEMERIS_TYPE":0,"CLASSIFICATION_TYPE":"U","NORAD_CAT_ID":19120,"ELEMENT_SET_NO":999,"REV_AT_EPOCH":95988,"BSTAR":-2.7011348e-5,"MEAN_MOTION_DOT":-1.05e-6,"MEAN_MOTION_DDOT":0},{"OBJECT_NAME":"COSMOS 1953","OBJECT_ID":"1988-050A","EPOCH":"2026-03-20T05:31:35.526720","MEAN_MOTION":15.28683692,"ECCENTRICITY":0.00126662,"INCLINATION":82.5089,"RA_OF_ASC_NODE":147.6459,"ARG_OF_PERICENTER":89.5942,"MEAN_ANOMALY":270.6749,"EPHEMERIS_TYPE":0,"CLASSIFICATION_TYPE":"U","NORAD_CAT_ID":19210,"ELEMENT_SET_NO":999,"REV_AT_EPOCH":3939,"BSTAR":0.00016756415,"MEAN_MOTION_DOT":4.716e-5,"MEAN_MOTION_DDOT":0}]
